[{"OBJECT_NAME":"OBJECT D","OBJECT_ID":"2024-203D","EPOCH":"2026-03-09T23:01:14.628576","MEAN_MOTION":15.25394324,"ECCENTRICITY":0.00105281,"INCLINATION":97.4343,"RA_OF_ASC_NODE":139.6527,"ARG_OF_PERICENTER":340.1906,"MEAN_ANOMALY":19.8921,"EPHEMERIS_TYPE":0,"CLASSIFICATION_TYPE":"U","NORAD_CAT_ID":61872,"ELEMENT_SET_NO":999,"REV_AT_EPOCH":7378,"BSTAR":0.00059366578,"MEAN_MOTION_DOT":0.00014956,"MEAN_MOTION_DDOT":0},{"OBJECT_NAME":"STARLINK-32757","OBJECT_ID":"2025-003F","EPOCH":"2026-03-09T14:06:20.201184","MEAN_MOTION":15.27601008,"ECCENTRICITY":0.00013,"INCLINATION":42.9926,"RA_OF_ASC_NODE":289.7462,"ARG_OF_PERICENTER":75.9369,"MEAN_ANOMALY":284.1627,"EPHEMERIS_TYPE":0,"CLASSIFICATION_TYPE":"U","NORAD_CAT_ID":62492,"ELEMENT_SET_NO":999,"REV_AT_EPOCH":6653,"BSTAR":0.00081611,"MEAN_MOTION_DOT":0.00022278,"MEAN_MOTION_DDOT":0}]
